{
  "type": "FeatureCollection",
  "features": [
    {
      "type": "Feature",
      "properties": {
        "norad_id": 37846,
        "name": "GSAT0101 (GALILEO-PFM)",
        "group": "gnss",
        "lat": -15.599335604492696,
        "lon": -23.389415667126798,
        "alt_km": 23217.20733904055,
        "timestamp": "2025-12-04T15:47:54.339594+00:00",
        "meta_object_name": "GSAT0101 (GALILEO-PFM)",
        "meta_object_id": "2011-060A",
        "meta_epoch": "2025-12-03T12:22:23.898432",
        "meta_mean_motion": 1.70475497,
        "meta_eccentricity": 0.00027974,
        "meta_inclination": 57.0548,
        "meta_ra_of_asc_node": 347.0705,
        "meta_arg_of_pericenter": 310.1579,
        "meta_mean_anomaly": 49.8533,
        "meta_ephemeris_type": 0,
        "meta_classification_type": "U",
        "meta_norad_cat_id": 37846,
        "meta_element_set_no": 999,
        "meta_rev_at_epoch": 8778,
        "meta_bstar": 0,
        "meta_mean_motion_dot": -6.8e-07,
        "meta_mean_motion_ddot": 0,
        "tle_line1": "1 37846U 11060A   25337.51555438 -.00000068  00000+0  00000+0 0  9995",
        "tle_line2": "2 37846  57.0548 347.0705 0002797 310.1579  49.8533  1.70475497 87782"
      },
      "geometry": {
        "type": "Point",
        "coordinates": [
          -23.389415667126798,
          -15.599335604492696
        ]
      }
    },
    {
      "type": "Feature",
      "properties": {
        "norad_id": 37847,
        "name": "GSAT0102 (GALILEO-FM2)",
        "group": "gnss",
        "lat": 22.23052779306596,
        "lon": 2.4171372852405275,
        "alt_km": 23217.110223397933,
        "timestamp": "2025-12-04T15:47:54.339612+00:00",
        "meta_object_name": "GSAT0102 (GALILEO-FM2)",
        "meta_object_id": "2011-060B",
        "meta_epoch": "2025-12-02T06:27:38.704608",
        "meta_mean_motion": 1.70475743,
        "meta_eccentricity": 0.00047518,
        "meta_inclination": 57.0559,
        "meta_ra_of_asc_node": 347.1049,
        "meta_arg_of_pericenter": 306.1199,
        "meta_mean_anomaly": 54.4344,
        "meta_ephemeris_type": 0,
        "meta_classification_type": "U",
        "meta_norad_cat_id": 37847,
        "meta_element_set_no": 999,
        "meta_rev_at_epoch": 8777,
        "meta_bstar": 0,
        "meta_mean_motion_dot": -6.2e-07,
        "meta_mean_motion_ddot": 0,
        "tle_line1": "1 37847U 11060B   25336.26919797 -.00000062  00000+0  00000+0 0  9993",
        "tle_line2": "2 37847  57.0559 347.1049 0004751 306.1199  54.4344  1.70475743 87777"
      },
      "geometry": {
        "type": "Point",
        "coordinates": [
          2.4171372852405275,
          22.23052779306596
        ]
      }
    },
    {
      "type": "Feature",
      "properties": {
        "norad_id": 37867,
        "name": "COSMOS 2476 (744)",
        "group": "gnss",
        "lat": -28.54532852271119,
        "lon": 64.87584326289115,
        "alt_km": 19138.932822973326,
        "timestamp": "2025-12-04T15:47:54.339624+00:00",
        "meta_object_name": "COSMOS 2476 (744)",
        "meta_object_id": "2011-064A",
        "meta_epoch": "2025-12-02T19:57:36.313920",
        "meta_mean_motion": 2.13101261,
        "meta_eccentricity": 0.00239603,
        "meta_inclination": 65.1573,
        "meta_ra_of_asc_node": 79.5068,
        "meta_arg_of_pericenter": 233.4935,
        "meta_mean_anomaly": 133.1658,
        "meta_ephemeris_type": 0,
        "meta_classification_type": "U",
        "meta_norad_cat_id": 37867,
        "meta_element_set_no": 999,
        "meta_rev_at_epoch": 10958,
        "meta_bstar": 0,
        "meta_mean_motion_dot": -2.2e-07,
        "meta_mean_motion_ddot": 0,
        "tle_line1": "1 37867U 11064A   25336.83167030 -.00000022  00000+0  00000+0 0  9993",
        "tle_line2": "2 37867  65.1573  79.5068 0023960 233.4935 133.1658  2.13101261109581"
      },
      "geometry": {
        "type": "Point",
        "coordinates": [
          64.87584326289115,
          -28.54532852271119
        ]
      }
    },
    {
      "type": "Feature",
      "properties": {
        "norad_id": 37868,
        "name": "COSMOS 2477 (745)",
        "group": "gnss",
        "lat": 28.16793949938118,
        "lon": -114.8100051957257,
        "alt_km": 19121.97907509305,
        "timestamp": "2025-12-04T15:47:54.339645+00:00",
        "meta_object_name": "COSMOS 2477 (745)",
        "meta_object_id": "2011-064B",
        "meta_epoch": "2025-12-01T05:34:43.743072",
        "meta_mean_motion": 2.1310269,
        "meta_eccentricity": 0.00209845,
        "meta_inclination": 65.1625,
        "meta_ra_of_asc_node": 79.6383,
        "meta_arg_of_pericenter": 233.8301,
        "meta_mean_anomaly": 166.8442,
        "meta_ephemeris_type": 0,
        "meta_classification_type": "U",
        "meta_norad_cat_id": 37868,
        "meta_element_set_no": 999,
        "meta_rev_at_epoch": 10954,
        "meta_bstar": 0,
        "meta_mean_motion_dot": -1.2e-07,
        "meta_mean_motion_ddot": 0,
        "tle_line1": "1 37868U 11064B   25335.23245073 -.00000012  00000+0  00000+0 0  9990",
        "tle_line2": "2 37868  65.1625  79.6383 0020984 233.8301 166.8442  2.13102690109542"
      },
      "geometry": {
        "type": "Point",
        "coordinates": [
          -114.8100051957257,
          28.16793949938118
        ]
      }
    },
    {
      "type": "Feature",
      "properties": {
        "norad_id": 37869,
        "name": "COSMOS 2475 (743)",
        "group": "gnss",
        "lat": 61.40770922874314,
        "lon": -158.45277335848667,
        "alt_km": 19176.55877993014,
        "timestamp": "2025-12-04T15:47:54.339657+00:00",
        "meta_object_name": "COSMOS 2475 (743)",
        "meta_object_id": "2011-064C",
        "meta_epoch": "2025-12-02T03:10:18.719904",
        "meta_mean_motion": 2.13101359,
        "meta_eccentricity": 0.0026048,
        "meta_inclination": 65.1701,
        "meta_ra_of_asc_node": 79.6277,
        "meta_arg_of_pericenter": 248.2415,
        "meta_mean_anomaly": 78.6584,
        "meta_ephemeris_type": 0,
        "meta_classification_type": "U",
        "meta_norad_cat_id": 37869,
        "meta_element_set_no": 999,
        "meta_rev_at_epoch": 10956,
        "meta_bstar": 0,
        "meta_mean_motion_dot": -1.8e-07,
        "meta_mean_motion_ddot": 0,
        "tle_line1": "1 37869U 11064C   25336.13216111 -.00000018  00000+0  00000+0 0  9998",
        "tle_line2": "2 37869  65.1701  79.6277 0026048 248.2415  78.6584  2.13101359109563"
      },
      "geometry": {
        "type": "Point",
        "coordinates": [
          -158.45277335848667,
          61.40770922874314
        ]
      }
    },
    {
      "type": "Feature",
      "properties": {
        "norad_id": 37948,
        "name": "BEIDOU-2 IGSO-5 (C10)",
        "group": "gnss",
        "lat": 35.8999135483274,
        "lon": 53.377655281074645,
        "alt_km": 35804.675266078615,
        "timestamp": "2025-12-04T15:47:54.339669+00:00",
        "meta_object_name": "BEIDOU-2 IGSO-5 (C10)",
        "meta_object_id": "2011-073A",
        "meta_epoch": "2025-12-03T19:19:36.726816",
        "meta_mean_motion": 1.00292258,
        "meta_eccentricity": 0.01106709,
        "meta_inclination": 48.0381,
        "meta_ra_of_asc_node": 273.9687,
        "meta_arg_of_pericenter": 222.1681,
        "meta_mean_anomaly": 319.0723,
        "meta_ephemeris_type": 0,
        "meta_classification_type": "U",
        "meta_norad_cat_id": 37948,
        "meta_element_set_no": 999,
        "meta_rev_at_epoch": 5117,
        "meta_bstar": 0,
        "meta_mean_motion_dot": -1.77e-06,
        "meta_mean_motion_ddot": 0,
        "tle_line1": "1 37948U 11073A   25337.80528619 -.00000177  00000+0  00000+0 0  9996",
        "tle_line2": "2 37948  48.0381 273.9687 0110670 222.1681 319.0723  1.00292258 51174"
      },
      "geometry": {
        "type": "Point",
        "coordinates": [
          53.377655281074645,
          35.8999135483274
        ]
      }
    },
    {
      "type": "Feature",
      "properties": {
        "norad_id": 37951,
        "name": "LUCH 5A (SDCM/PRN 140)",
        "group": "gnss",
        "lat": 5.418588513257604,
        "lon": 117.33850944761635,
        "alt_km": 35802.123079286124,
        "timestamp": "2025-12-04T15:47:54.339681+00:00",
        "meta_object_name": "LUCH 5A (SDCM/PRN 140)",
        "meta_object_id": "2011-074B",
        "meta_epoch": "2025-12-03T17:52:23.438208",
        "meta_mean_motion": 1.00273355,
        "meta_eccentricity": 0.0005906,
        "meta_inclination": 8.2554,
        "meta_ra_of_asc_node": 76.7173,
        "meta_arg_of_pericenter": 174.2718,
        "meta_mean_anomaly": 256.9196,
        "meta_ephemeris_type": 0,
        "meta_classification_type": "U",
        "meta_norad_cat_id": 37951,
        "meta_element_set_no": 999,
        "meta_rev_at_epoch": 5109,
        "meta_bstar": 0,
        "meta_mean_motion_dot": -3.6e-07,
        "meta_mean_motion_ddot": 0,
        "tle_line1": "1 37951U 11074B   25337.74471572 -.00000036  00000+0  00000+0 0  9993",
        "tle_line2": "2 37951   8.2554  76.7173 0005906 174.2718 256.9196  1.00273355 51091"
      },
      "geometry": {
        "type": "Point",
        "coordinates": [
          117.33850944761635,
          5.418588513257604
        ]
      }
    }
  ]
}